[{"OBJECT_NAME":"PRAETORIAN SDA_605","OBJECT_ID":"2025-203D","EPOCH":"2026-03-09T14:13:24.756960","MEAN_MOTION":13.83528896,"ECCENTRICITY":0.000955,"INCLINATION":81.2983,"RA_OF_ASC_NODE":102.8978,"ARG_OF_PERICENTER":98.6469,"MEAN_ANOMALY":261.5769,"EPHEMERIS_TYPE":0,"CLASSIFICATION_TYPE":"U","NORAD_CAT_ID":65568,"ELEMENT_SET_NO":999,"REV_AT_EPOCH":2492,"BSTAR":5.2426e-5,"MEAN_MOTION_DOT":7.0e-7,"MEAN_MOTION_DDOT":0},{"OBJECT_NAME":"SL-14 R\/B","OBJECT_ID":"1987-001B","EPOCH":"2026-03-09T19:30:07.547040","MEAN_MOTION":13.84688144,"ECCENTRICITY":0.00124611,"INCLINATION":82.4714,"RA_OF_ASC_NODE":180.5041,"ARG_OF_PERICENTER":106.3212,"MEAN_ANOMALY":253.932,"EPHEMERIS_TYPE":0,"CLASSIFICATION_TYPE":"U","NORAD_CAT_ID":17291,"ELEMENT_SET_NO":999,"REV_AT_EPOCH":97953,"BSTAR":3.3083778e-5,"MEAN_MOTION_DOT":5.2e-7,"MEAN_MOTION_DDOT":0}]
